{"type": "FeatureCollection", "features": [ {"type": "Feature", "properties": {"norad_id": 43437, "name": "SENTINEL-3B", "group": "resource", "lat": -77.26547081961867, "lon": -157.0392908125858, "alt_km": 811.095843489009, "timestamp": "2025-12-26T03:50:11.745405+00:00", "meta": {"OBJECT_NAME": "SENTINEL-3B", "OBJECT_ID": "2018-039A", "EPOCH": "2025-12-25T18:12:12.174336", "MEAN_MOTION": 14.26739017, "ECCENTRICITY": 0.0001586, "INCLINATION": 98.6249, "RA_OF_ASC_NODE": 64.7561, "ARG_OF_PERICENTER": 88.7501, "MEAN_ANOMALY": 271.3861, "EPHEMERIS_TYPE": 0, "CLASSIFICATION_TYPE": "U", "NORAD_CAT_ID": 43437, "ELEMENT_SET_NO": 999, "REV_AT_EPOCH": 39939, "BSTAR": 7.9528e-05, "MEAN_MOTION_DOT": 1.49e-06, "MEAN_MOTION_DDOT": 0}, "tle": {"line1": "1 43437U 18039A   25359.75847424  .00000149  00000+0  79528-4 0  9995", "line2": "2 43437  98.6249  64.7561 0001586  88.7501 271.3861 14.26739017399390"}}, "geometry": {"type": "Point", "coordinates": [-157.0392908125858, -77.26547081961867]}}, {"type": "Feature", "properties": {"norad_id": 43461, "name": "GAOFEN-5 01", "group": "resource", "lat": 72.31916733278923, "lon": -64.37892407311014, "alt_km": 685.1960602987374, "timestamp": "2025-12-26T03:50:11.745417+00:00", "meta": {"OBJECT_NAME": "GAOFEN-5 01", "OBJECT_ID": "2018-043A", "EPOCH": "2025-12-25T20:55:11.303040", "MEAN_MOTION": 14.60423654, "ECCENTRICITY": 5.49e-05, "INCLINATION": 98.4347, "RA_OF_ASC_NODE": 323.0695, "ARG_OF_PERICENTER": 234.7022, "MEAN_ANOMALY": 125.4127, "EPHEMERIS_TYPE": 0, "CLASSIFICATION_TYPE": "U", "NORAD_CAT_ID": 43461, "ELEMENT_SET_NO": 999, "REV_AT_EPOCH": 40639, "BSTAR": 0.00011249, "MEAN_MOTION_DOT": 4.96e-06, "MEAN_MOTION_DDOT": 0}, "tle": {"line1": "1 43461U 18043A   25359.87165860  .00000496  00000+0  11249-3 0  9997", "line2": "2 43461  98.4347 323.0695 0000549 234.7022 125.4127 14.60423654406390"}}, "geometry": {"type": "Point", "coordinates": [-64.37892407311014, 72.31916733278923]}}, {"type": "Feature", "properties": {"norad_id": 43484, "name": "GAOFEN-6", "group": "resource", "lat": 50.2756292925075, "lon": -106.52878680963602, "alt_km": 637.8513164920114, "timestamp": "2025-12-26T03:50:11.745427+00:00", "meta": {"OBJECT_NAME": "GAOFEN-6", "OBJECT_ID": "2018-048A", "EPOCH": "2025-12-25T20:44:59.275680", "MEAN_MOTION": 14.76587742, "ECCENTRICITY": 0.00125, "INCLINATION": 97.801, "RA_OF_ASC_NODE": 63.6895, "ARG_OF_PERICENTER": 24.5322, "MEAN_ANOMALY": 335.6481, "EPHEMERIS_TYPE": 0, "CLASSIFICATION_TYPE": "U", "NORAD_CAT_ID": 43484, "ELEMENT_SET_NO": 999, "REV_AT_EPOCH": 40781, "BSTAR": 9.0786e-05, "MEAN_MOTION_DOT": 5.85e-06, "MEAN_MOTION_DDOT": 0}, "tle": {"line1": "1 43484U 18048A   25359.86457495  .00000585  00000+0  90786-4 0  9997", "line2": "2 43484  97.8010  63.6895 0012500  24.5322 335.6481 14.76587742407814"}}, "geometry": {"type": "Point", "coordinates": [-106.52878680963602, 50.2756292925075]}}, {"type": "Feature", "properties": {"norad_id": 43585, "name": "GAOFEN-11 01", "group": "resource", "lat": -27.793735643430562, "lon": -120.81232261085788, "alt_km": 421.7335439802455, "timestamp": "2025-12-26T03:50:11.745438+00:00", "meta": {"OBJECT_NAME": "GAOFEN-11 01", "OBJECT_ID": "2018-063A", "EPOCH": "2025-12-25T20:44:32.840736", "MEAN_MOTION": 15.49580361, "ECCENTRICITY": 0.000388, "INCLINATION": 97.1535, "RA_OF_ASC_NODE": 62.6903, "ARG_OF_PERICENTER": 245.3242, "MEAN_ANOMALY": 114.7606, "EPHEMERIS_TYPE": 0, "CLASSIFICATION_TYPE": "U", "NORAD_CAT_ID": 43585, "ELEMENT_SET_NO": 999, "REV_AT_EPOCH": 41345, "BSTAR": 0.00017692, "MEAN_MOTION_DOT": 9.681e-05, "MEAN_MOTION_DDOT": 0}, "tle": {"line1": "1 43585U 18063A   25359.86426899  .00009681  00000+0  17692-3 0  9990", "line2": "2 43585  97.1535  62.6903 0003880 245.3242 114.7606 15.49580361413458"}}, "geometry": {"type": "Point", "coordinates": [-120.81232261085788, -27.793735643430562]}}, {"type": "Feature", "properties": {"norad_id": 43613, "name": "ICESAT-2", "group": "resource", "lat": 0.6706890960202446, "lon": -115.66448105640173, "alt_km": 484.76233293935, "timestamp": "2025-12-26T03:50:11.745450+00:00", "meta": {"OBJECT_NAME": "ICESAT-2", "OBJECT_ID": "2018-070A", "EPOCH": "2025-12-25T19:58:33.964320", "MEAN_MOTION": 15.28252155, "ECCENTRICITY": 0.0003134, "INCLINATION": 92.0035, "RA_OF_ASC_NODE": 244.2707, "ARG_OF_PERICENTER": 109.3306, "MEAN_ANOMALY": 250.8283, "EPHEMERIS_TYPE": 0, "CLASSIFICATION_TYPE": "U", "NORAD_CAT_ID": 43613, "ELEMENT_SET_NO": 999, "REV_AT_EPOCH": 40598, "BSTAR": 0.00048488, "MEAN_MOTION_DOT": 0.00013349, "MEAN_MOTION_DDOT": 0}, "tle": {"line1": "1 43613U 18070A   25359.83233755  .00013349  00000+0  48488-3 0  9997", "line2": "2 43613  92.0035 244.2707 0003134 109.3306 250.8283 15.28252155405987"}}, "geometry": {"type": "Point", "coordinates": [-115.66448105640173, 0.6706890960202446]}}, {"type": "Feature", "properties": {"norad_id": 43719, "name": "HYSIS", "group": "resource", "lat": -80.57807870984104, "lon": -174.95767997648827, "alt_km": 641.3315837124692, "timestamp": "2025-12-26T03:50:11.745461+00:00", "meta": {"OBJECT_NAME": "HYSIS", "OBJECT_ID": "2018-096A", "EPOCH": "2025-12-25T20:08:43.377216", "MEAN_MOTION": 14.78679666, "ECCENTRICITY": 8.18e-05, "INCLINATION": 98.0076, "RA_OF_ASC_NODE": 62.7521, "ARG_OF_PERICENTER": 54.7799, "MEAN_ANOMALY": 305.3488, "EPHEMERIS_TYPE": 0, "CLASSIFICATION_TYPE": "U", "NORAD_CAT_ID": 43719, "ELEMENT_SET_NO": 999, "REV_AT_EPOCH": 38180, "BSTAR": 0.00017154, "MEAN_MOTION_DOT": 1.205e-05, "MEAN_MOTION_DDOT": 0}, "tle": {"line1": "1 43719U 18096A   25359.83939094  .00001205  00000+0  17154-3 0  9995", "line2": "2 43719  98.0076  62.7521 0000818  54.7799 305.3488 14.78679666381808"}}, "geometry": {"type": "Point", "coordinates": [-174.95767997648827, -80.57807870984104]}}, {"type": "Feature", "properties": {"norad_id": 43783, "name": "KAZSTSAT", "group": "resource", "lat": 58.43417937854832, "lon": 22.466291587302297, "alt_km": 566.9767470502893, "timestamp": "2025-12-26T03:50:11.745472+00:00", "meta": {"OBJECT_NAME": "KAZSTSAT", "OBJECT_ID": "2018-099AB", "EPOCH": "2025-12-25T16:21:41.281056", "MEAN_MOTION": 14.99372858, "ECCENTRICITY": 0.0006346, "INCLINATION": 97.4512, "RA_OF_ASC_NODE": 34.3083, "ARG_OF_PERICENTER": 272.4562, "MEAN_ANOMALY": 87.5935, "EPHEMERIS_TYPE": 0, "CLASSIFICATION_TYPE": "U", "NORAD_CAT_ID": 43783, "ELEMENT_SET_NO": 999, "REV_AT_EPOCH": 38530, "BSTAR": 6.286e-05, "MEAN_MOTION_DOT": 7.13e-06, "MEAN_MOTION_DDOT": 0}, "tle": {"line1": "1 43783U 18099AB  25359.68172779  .00000713  00000+0  62860-4 0  9999", "line2": "2 43783  97.4512  34.3083 0006346 272.4562  87.5935 14.99372858385305"}}, "geometry": {"type": "Point", "coordinates": [22.466291587302297, 58.43417937854832]}}, {"type": "Feature", "properties": {"norad_id": 43831, "name": "SAUDISAT 5A", "group": "resource", "lat": -55.409976007341925, "lon": 70.85442396474542, "alt_km": 495.44080893870705, "timestamp": "2025-12-26T03:50:11.745482+00:00", "meta": {"OBJECT_NAME": "SAUDISAT 5A", "OBJECT_ID": "2018-102A", "EPOCH": "2025-12-25T20:12:43.784352", "MEAN_MOTION": 15.25816127, "ECCENTRICITY": 0.0010999, "INCLINATION": 97.333, "RA_OF_ASC_NODE": 59.78, "ARG_OF_PERICENTER": 35.3608, "MEAN_ANOMALY": 324.8358, "EPHEMERIS_TYPE": 0, "CLASSIFICATION_TYPE": "U", "NORAD_CAT_ID": 43831, "ELEMENT_SET_NO": 999, "REV_AT_EPOCH": 38922, "BSTAR": 0.00026961, "MEAN_MOTION_DOT": 6.834e-05, "MEAN_MOTION_DDOT": 0}, "tle": {"line1": "1 43831U 18102A   25359.84217343  .00006834  00000+0  26961-3 0  9994", "line2": "2 43831  97.3330  59.7800 0010999  35.3608 324.8358 15.25816127389223"}}, "geometry": {"type": "Point", "coordinates": [70.85442396474542, -55.409976007341925]}}, {"type": "Feature", "properties": {"norad_id": 43833, "name": "SAUDISAT 5B", "group": "resource", "lat": 12.914403843535808, "lon": 61.15989453490828, "alt_km": 481.13079986999037, "timestamp": "2025-12-26T03:50:11.745492+00:00", "meta": {"OBJECT_NAME": "SAUDISAT 5B", "OBJECT_ID": "2018-102C", "EPOCH": "2025-12-25T19:54:42.865920", "MEAN_MOTION": 15.26161325, "ECCENTRICITY": 0.001175, "INCLINATION": 97.3425, "RA_OF_ASC_NODE": 62.5298, "ARG_OF_PERICENTER": 37.3586, "MEAN_ANOMALY": 322.8468, "EPHEMERIS_TYPE": 0, "CLASSIFICATION_TYPE": "U", "NORAD_CAT_ID": 43833, "ELEMENT_SET_NO": 999, "REV_AT_EPOCH": 38933, "BSTAR": 0.00023724, "MEAN_MOTION_DOT": 6.069e-05, "MEAN_MOTION_DDOT": 0}, "tle": {"line1": "1 43833U 18102C   25359.82966280  .00006069  00000+0  23724-3 0  9999", "line2": "2 43833  97.3425  62.5298 0011750  37.3586 322.8468 15.26161325389332"}}, "geometry": {"type": "Point", "coordinates": [61.15989453490828, 12.914403843535808]}}, {"type": "Feature", "properties": {"norad_id": 44622, "name": "GAOFEN-10R", "group": "resource", "lat": 29.31564753289941, "lon": -56.82667516718898, "alt_km": 614.6858345332339, "timestamp": "2025-12-26T03:50:11.745504+00:00", "meta": {"OBJECT_NAME": "GAOFEN-10R", "OBJECT_ID": "2019-066A", "EPOCH": "2025-12-25T21:13:31.937088", "MEAN_MOTION": 14.82835931, "ECCENTRICITY": 0.000694, "INCLINATION": 98.0296, "RA_OF_ASC_NODE": 307.4432, "ARG_OF_PERICENTER": 2.9659, "MEAN_ANOMALY": 357.1594, "EPHEMERIS_TYPE": 0, "CLASSIFICATION_TYPE": "U", "NORAD_CAT_ID": 44622, "ELEMENT_SET_NO": 999, "REV_AT_EPOCH": 33669, "BSTAR": 0.00021997, "MEAN_MOTION_DOT": 1.726e-05, "MEAN_MOTION_DDOT": 0}, "tle": {"line1": "1 44622U 19066A   25359.88439742  .00001726  00000+0  21997-3 0  9995", "line2": "2 44622  98.0296 307.4432 0006940   2.9659 357.1594 14.82835931336692"}}, "geometry": {"type": "Point", "coordinates": [-56.82667516718898, 29.31564753289941]}}]}